[{"CCSDS_OMM_VERS":"3.0","COMMENT":"GENERATED VIA SPACE-TRACK.ORG API","CREATION_DATE":"2026-06-08T10:56:51","ORIGINATOR":"18 SPCS","OBJECT_NAME":"QZS-2","OBJECT_ID":"2017-028A","CENTER_NAME":"EARTH","REF_FRAME":"TEME","TIME_SYSTEM":"UTC","MEAN_ELEMENT_THEORY":"SGP4","EPOCH":"2026-06-07T13:48:31.783104","MEAN_MOTION":"1.00286521","ECCENTRICITY":"0.07605855","INCLINATION":"39.4419","RA_OF_ASC_NODE":"243.2963","ARG_OF_PERICENTER":"269.1564","MEAN_ANOMALY":"91.9396","EPHEMERIS_TYPE":"0","CLASSIFICATION_TYPE":"U","NORAD_CAT_ID":"42738","ELEMENT_SET_NO":"999","REV_AT_EPOCH":"753","BSTAR":"0.00000000000000","MEAN_MOTION_DOT":"-0.00000151","MEAN_MOTION_DDOT":"0.0000000000000","SEMIMAJOR_AXIS":"42160.601","PERIOD":"1435.886","APOAPSIS":"38989.141","PERIAPSIS":"32575.792","OBJECT_TYPE":"PAYLOAD","RCS_SIZE":"LARGE","COUNTRY_CODE":"JPN","LAUNCH_DATE":"2017-06-01","SITE":"TNSTA","DECAY_DATE":null,"FILE":"5237053","GP_ID":"328027020","TLE_LINE0":"0 QZS-2","TLE_LINE1":"1 42738U 17028A   26158.57536786 -.00000151  00000-0  00000-0 0  9999","TLE_LINE2":"2 42738  39.4419 243.2963 0760585 269.1564  91.9396  1.00286521  7536"},{"CCSDS_OMM_VERS":"3.0","COMMENT":"GENERATED VIA SPACE-TRACK.ORG API","CREATION_DATE":"2026-06-08T07:06:58","ORIGINATOR":"18 SPCS","OBJECT_NAME":"QZS-2","OBJECT_ID":"2017-028A","CENTER_NAME":"EARTH","REF_FRAME":"TEME","TIME_SYSTEM":"UTC","MEAN_ELEMENT_THEORY":"SGP4","EPOCH":"2026-06-07T13:48:31.783104","MEAN_MOTION":"1.00286521","ECCENTRICITY":"0.07605850","INCLINATION":"39.4419","RA_OF_ASC_NODE":"243.2963","ARG_OF_PERICENTER":"269.1564","MEAN_ANOMALY":"91.9396","EPHEMERIS_TYPE":"0","CLASSIFICATION_TYPE":"U","NORAD_CAT_ID":"42738","ELEMENT_SET_NO":"999","REV_AT_EPOCH":"753","BSTAR":"0.00000000000000","MEAN_MOTION_DOT":"-0.00000151","MEAN_MOTION_DDOT":"0.0000000000000","SEMIMAJOR_AXIS":"42160.601","PERIOD":"1435.886","APOAPSIS":"38989.139","PERIAPSIS":"32575.794","OBJECT_TYPE":"PAYLOAD","RCS_SIZE":"LARGE","COUNTRY_CODE":"JPN","LAUNCH_DATE":"2017-06-01","SITE":"TNSTA","DECAY_DATE":null,"FILE":"5236468","GP_ID":"327958243","TLE_LINE0":"0 QZS-2","TLE_LINE1":"1 42738U 17028A   26158.57536786 -.00000151  00000-0  00000+0 0  9998","TLE_LINE2":"2 42738  39.4419 243.2963 0760585 269.1564  91.9396  1.00286521  7536"},{"CCSDS_OMM_VERS":"3.0","COMMENT":"GENERATED VIA SPACE-TRACK.ORG API","CREATION_DATE":"2026-06-09T11:36:59","ORIGINATOR":"18 SPCS","OBJECT_NAME":"QZS-2","OBJECT_ID":"2017-028A","CENTER_NAME":"EARTH","REF_FRAME":"TEME","TIME_SYSTEM":"UTC","MEAN_ELEMENT_THEORY":"SGP4","EPOCH":"2026-06-08T13:34:50.003328","MEAN_MOTION":"1.00286250","ECCENTRICITY":"0.07604931","INCLINATION":"39.4403","RA_OF_ASC_NODE":"243.2817","ARG_OF_PERICENTER":"269.1681","MEAN_ANOMALY":"89.5416","EPHEMERIS_TYPE":"0","CLASSIFICATION_TYPE":"U","NORAD_CAT_ID":"42738","ELEMENT_SET_NO":"999","REV_AT_EPOCH":"754","BSTAR":"0.00000000000000","MEAN_MOTION_DOT":"-0.00000150","MEAN_MOTION_DDOT":"0.0000000000000","SEMIMAJOR_AXIS":"42160.677","PERIOD":"1435.890","APOAPSIS":"38988.833","PERIAPSIS":"32576.252","OBJECT_TYPE":"PAYLOAD","RCS_SIZE":"LARGE","COUNTRY_CODE":"JPN","LAUNCH_DATE":"2017-06-01","SITE":"TNSTA","DECAY_DATE":null,"FILE":"5239225","GP_ID":"328297804","TLE_LINE0":"0 QZS-2","TLE_LINE1":"1 42738U 17028A   26159.56585652 -.00000150  00000-0  00000-0 0  9994","TLE_LINE2":"2 42738  39.4403 243.2817 0760493 269.1681  89.5416  1.00286250  7541"},{"CCSDS_OMM_VERS":"3.0","COMMENT":"GENERATED VIA SPACE-TRACK.ORG API","CREATION_DATE":"2026-06-08T23:36:52","ORIGINATOR":"18 SPCS","OBJECT_NAME":"QZS-2","OBJECT_ID":"2017-028A","CENTER_NAME":"EARTH","REF_FRAME":"TEME","TIME_SYSTEM":"UTC","MEAN_ELEMENT_THEORY":"SGP4","EPOCH":"2026-06-08T13:34:50.003328","MEAN_MOTION":"1.00286250","ECCENTRICITY":"0.07604930","INCLINATION":"39.4403","RA_OF_ASC_NODE":"243.2817","ARG_OF_PERICENTER":"269.1680","MEAN_ANOMALY":"89.5416","EPHEMERIS_TYPE":"0","CLASSIFICATION_TYPE":"U","NORAD_CAT_ID":"42738","ELEMENT_SET_NO":"999","REV_AT_EPOCH":"754","BSTAR":"0.00000000000000","MEAN_MOTION_DOT":"-0.00000150","MEAN_MOTION_DDOT":"0.0000000000000","SEMIMAJOR_AXIS":"42160.677","PERIOD":"1435.890","APOAPSIS":"38988.832","PERIAPSIS":"32576.252","OBJECT_TYPE":"PAYLOAD","RCS_SIZE":"LARGE","COUNTRY_CODE":"JPN","LAUNCH_DATE":"2017-06-01","SITE":"TNSTA","DECAY_DATE":null,"FILE":"5237954","GP_ID":"328129343","TLE_LINE0":"0 QZS-2","TLE_LINE1":"1 42738U 17028A   26159.56585652 -.00000150  00000-0  00000+0 0  9993","TLE_LINE2":"2 42738  39.4403 243.2817 0760493 269.1680  89.5416  1.00286250  7540"},{"CCSDS_OMM_VERS":"3.0","COMMENT":"GENERATED VIA SPACE-TRACK.ORG API","CREATION_DATE":"2026-06-09T19:23:37","ORIGINATOR":"18 SPCS","OBJECT_NAME":"QZS-2","OBJECT_ID":"2017-028A","CENTER_NAME":"EARTH","REF_FRAME":"TEME","TIME_SYSTEM":"UTC","MEAN_ELEMENT_THEORY":"SGP4","EPOCH":"2026-06-09T12:56:43.810944","MEAN_MOTION":"1.00285994","ECCENTRICITY":"0.07605811","INCLINATION":"39.4388","RA_OF_ASC_NODE":"243.2674","ARG_OF_PERICENTER":"269.1776","MEAN_ANOMALY":"81.0235","EPHEMERIS_TYPE":"0","CLASSIFICATION_TYPE":"U","NORAD_CAT_ID":"42738","ELEMENT_SET_NO":"999","REV_AT_EPOCH":"754","BSTAR":"0.00000000000000","MEAN_MOTION_DOT":"-0.00000147","MEAN_MOTION_DDOT":"0.0000000000000","SEMIMAJOR_AXIS":"42160.749","PERIOD":"1435.893","APOAPSIS":"38989.281","PERIAPSIS":"32575.947","OBJECT_TYPE":"PAYLOAD","RCS_SIZE":"LARGE","COUNTRY_CODE":"JPN","LAUNCH_DATE":"2017-06-01","SITE":"TNSTA","DECAY_DATE":null,"FILE":"5240046","GP_ID":"328409145","TLE_LINE0":"0 QZS-2","TLE_LINE1":"1 42738U 17028A   26160.53939596 -.00000147  00000-0  00000-0 0  9999","TLE_LINE2":"2 42738  39.4388 243.2674 0760581 269.1776  81.0235  1.00285994  7547"},{"CCSDS_OMM_VERS":"3.0","COMMENT":"GENERATED VIA SPACE-TRACK.ORG API","CREATION_DATE":"2026-06-14T23:26:41","ORIGINATOR":"18 SPCS","OBJECT_NAME":"QZS-2","OBJECT_ID":"2017-028A","CENTER_NAME":"EARTH","REF_FRAME":"TEME","TIME_SYSTEM":"UTC","MEAN_ELEMENT_THEORY":"SGP4","EPOCH":"2026-06-14T12:35:02.340960","MEAN_MOTION":"1.00284682","ECCENTRICITY":"0.07604010","INCLINATION":"39.4315","RA_OF_ASC_NODE":"243.1943","ARG_OF_PERICENTER":"269.2280","MEAN_ANOMALY":"80.7522","EPHEMERIS_TYPE":"0","CLASSIFICATION_TYPE":"U","NORAD_CAT_ID":"42738","ELEMENT_SET_NO":"999","REV_AT_EPOCH":"759","BSTAR":"0.00000000000000","MEAN_MOTION_DOT":"-0.00000137","MEAN_MOTION_DDOT":"0.0000000000000","SEMIMAJOR_AXIS":"42161.117","PERIOD":"1435.912","APOAPSIS":"38988.917","PERIAPSIS":"32577.046","OBJECT_TYPE":"PAYLOAD","RCS_SIZE":"LARGE","COUNTRY_CODE":"JPN","LAUNCH_DATE":"2017-06-01","SITE":"TNSTA","DECAY_DATE":null,"FILE":"5246970","GP_ID":"329463038","TLE_LINE0":"0 QZS-2","TLE_LINE1":"1 42738U 17028A   26165.52433265 -.00000137  00000-0  00000+0 0  9993","TLE_LINE2":"2 42738  39.4315 243.1943 0760401 269.2280  80.7522  1.00284682  7590"},{"CCSDS_OMM_VERS":"3.0","COMMENT":"GENERATED VIA SPACE-TRACK.ORG API","CREATION_DATE":"2026-06-15T02:25:05","ORIGINATOR":"18 SPCS","OBJECT_NAME":"QZS-2","OBJECT_ID":"2017-028A","CENTER_NAME":"EARTH","REF_FRAME":"TEME","TIME_SYSTEM":"UTC","MEAN_ELEMENT_THEORY":"SGP4","EPOCH":"2026-06-14T12:35:02.341824","MEAN_MOTION":"1.00284682","ECCENTRICITY":"0.07604012","INCLINATION":"39.4315","RA_OF_ASC_NODE":"243.1943","ARG_OF_PERICENTER":"269.2281","MEAN_ANOMALY":"80.7522","EPHEMERIS_TYPE":"0","CLASSIFICATION_TYPE":"U","NORAD_CAT_ID":"42738","ELEMENT_SET_NO":"999","REV_AT_EPOCH":"759","BSTAR":"0.00000000000000","MEAN_MOTION_DOT":"-0.00000137","MEAN_MOTION_DDOT":"0.0000000000000","SEMIMAJOR_AXIS":"42161.117","PERIOD":"1435.912","APOAPSIS":"38988.918","PERIAPSIS":"32577.045","OBJECT_TYPE":"PAYLOAD","RCS_SIZE":"LARGE","COUNTRY_CODE":"JPN","LAUNCH_DATE":"2017-06-01","SITE":"TNSTA","DECAY_DATE":null,"FILE":"5247531","GP_ID":"329531206","TLE_LINE0":"0 QZS-2","TLE_LINE1":"1 42738U 17028A   26165.52433266 -.00000137  00000-0  00000-0 0  9995","TLE_LINE2":"2 42738  39.4315 243.1943 0760401 269.2281  80.7522  1.00284682  7591"},{"CCSDS_OMM_VERS":"3.0","COMMENT":"GENERATED VIA SPACE-TRACK.ORG API","CREATION_DATE":"2026-06-15T18:47:25","ORIGINATOR":"18 SPCS","OBJECT_NAME":"QZS-2","OBJECT_ID":"2017-028A","CENTER_NAME":"EARTH","REF_FRAME":"TEME","TIME_SYSTEM":"UTC","MEAN_ELEMENT_THEORY":"SGP4","EPOCH":"2026-06-15T12:28:38.731008","MEAN_MOTION":"1.00284423","ECCENTRICITY":"0.07605138","INCLINATION":"39.4302","RA_OF_ASC_NODE":"243.1796","ARG_OF_PERICENTER":"269.2356","MEAN_ANOMALY":"80.1810","EPHEMERIS_TYPE":"0","CLASSIFICATION_TYPE":"U","NORAD_CAT_ID":"42738","ELEMENT_SET_NO":"999","REV_AT_EPOCH":"760","BSTAR":"0.00000000000000","MEAN_MOTION_DOT":"-0.00000144","MEAN_MOTION_DDOT":"0.0000000000000","SEMIMAJOR_AXIS":"42161.189","PERIOD":"1435.916","APOAPSIS":"38989.471","PERIAPSIS":"32576.638","OBJECT_TYPE":"PAYLOAD","RCS_SIZE":"LARGE","COUNTRY_CODE":"JPN","LAUNCH_DATE":"2017-06-01","SITE":"TNSTA","DECAY_DATE":null,"FILE":"5249107","GP_ID":"329747841","TLE_LINE0":"0 QZS-2","TLE_LINE1":"1 42738U 17028A   26166.51989272 -.00000144  00000-0  00000-0 0  9996","TLE_LINE2":"2 42738  39.4302 243.1796 0760514 269.2356  80.1810  1.00284423  7600"}]